C/2016 Q2 (PANSTARRS),e,109.6537,322.3263,83.8565,362.2103,0.0001430,0.98010416,0.0000,05/28.3406/2021,2000,g  6.0,4.0
# From MPEC 2017-A77
C/2016 Q4 (Kowalski),e,7.2568,271.3298,99.4245,16.78877,0.0143277,0.57796353,354.5623,01/13.0/2017,2000,g  7.0,4.0
# From MPEC 2017-A77
C/2016 R2 (PANSTARRS),e,58.2146,80.5764,33.1930,785.4214,0.0000448,0.99668713,0.0000,05/09.5453/2018,2000,g  7.0,4.0
# From MPC102099
C/2016 R3 (Borisov),e,53.0491,78.6879,118.0469,197.0465,0.0003563,0.99773010,0.0000,10/10.9849/2016,2000,g 18.0,4.0
# From MPEC 2017-A77
P/2016 R4 (Gibbs),e,10.8621,168.3467,174.0506,5.335149,0.0799805,0.47508159,14.1191,01/13.0/2017,2000,g 12.5,4.0
# From MPEC 2017-A77
P/2016 S1 (PANSTARRS),e,94.6905,227.5394,273.6116,8.284029,0.0413373,0.70884722,357.4035,01/13.0/2017,2000,g 12.0,4.0
# From MPC102100
C/2016 T1 (Matheny),e,129.8205,56.2281,137.4892,116.5065,0.0007838,0.98027944,0.0000,02/01.9878/2017,2000,g 13.0,4.0
# From MPEC 2017-A77
C/2016 T2 (Matheny),e,81.3105,339.0980,92.2874,101.7201,0.0009607,0.98124493,0.0000,12/29.1093/2016,2000,g 14.5,4.0
# From MPEC 2017-A77
C/2016 T3 (PANSTARRS),e,22.6732,271.7544,194.6650,143.0259,0.0005762,0.98147434,0.0000,09/06.9581/2017,2000,g 10.5,4.0
# From MPEC 2017-A77
C/2016 U1 (NEOWISE),h,01/14.0167/2017,46.4348,61.4283,162.7490,1.000254,0.319166,2000,17.0,4.0
# From MPEC 2017-A77
C/2016 X1 (Lemmon),e,26.5251,256.4016,224.2850,595.1208,0.0000679,0.98722739,0.0000,04/30.9108/2019,2000,g  6.0,4.0
# From MPEC 2017-A77
C/2017 A1 (PANSTARRS),p,05/16.5656/2017,49.6205,2.8082,2.259674,121.2385,2000,13.0,4.0
# From MPEC 2017-A77
P/2017 A2 (PANSTARRS),e,17.5779,313.7383,133.7111,3.162949,0.1752128,0.30088878,35.9058,01/13.0/2017,2000,g 14.0,4.0
# From MPEC 2017-A75
C/2017 A3 (Elenin),p,01/20.2058/2017,99.1253,301.8687,3.911036,96.7337,2000,9.5,4.0
# From AJ 98, 1083
1P/Halley,e,162.3121,58.2195,111.1088,17.85486,0.0130638,0.96750479,147.8931,01/13.0/2017,2000,g  5.5,3.2
# From NK 2573
2P/Encke,e,11.7782,334.5605,186.5625,2.214734,0.2990348,0.84833462,343.2269,01/13.0/2017,2000,g 11.5,6.0
# From MPC 92275
4P/Faye,e,9.1967,199.0462,204.5958,3.814777,0.1322818,0.57558337,126.4905,01/13.0/2017,2000,g  8.0,6.0
# From MPC 95735
6P/d'Arrest,e,19.4836,138.9273,178.0845,3.501718,0.1504119,0.61136200,102.6816,01/13.0/2017,2000,g  7.5,16.0
# From MPC 92984
7P/Pons-Winnecke,e,22.3423,93.3926,172.4965,3.418356,0.1559474,0.63784604,111.2453,01/13.0/2017,2000,g 10.0,6.0
# From MPC 75715
8P/Tuttle,e,54.9732,270.2766,207.5333,5.690890,0.0725995,0.82020237,237.4377,01/13.0/2017,2000,g  8.0,8.0
# From MPC 84319
9P/Tempel,e,10.4739,68.7485,179.2134,3.145526,0.1766705,0.50959866,28.8692,01/13.0/2017,2000,g  5.5,10.0
# From MPC 92984
10P/Tempel,e,12.0296,117.7984,195.5254,3.063596,0.1838048,0.53739575,78.2577,01/13.0/2017,2000,g  5.0,10.0
# From MPC 89730
11P/Tempel-Swift-LINEAR,e,13.6858,239.8611,164.3693,3.404071,0.1569300,0.54939091,136.2849,01/13.0/2017,2000,g 17.0,4.0
# From QJ 27, 604
12P/Pons-Brooks,e,74.1867,255.7951,199.1726,16.95742,0.0141145,0.95435463,322.5005,01/13.0/2017,2000,g  5.0,6.0
# From QJ 27, 604
13P/Olbers,e,44.6343,86.0104,64.6080,16.64685,0.0145113,0.93047424,320.4731,01/13.0/2017,2000,g  5.0,6.0
# From MPC 10028
14P/Wolf,e,27.9032,202.1171,159.0548,4.257228,0.1122054,0.35571873,323.7422,01/13.0/2017,2000,g  5.5,12.0
# From MPC 91617
15P/Finlay,e,6.8067,13.6901,347.9232,3.500649,0.1504809,0.71809261,112.6973,01/13.0/2017,2000,g 12.0,4.0
# From MPC 92276
16P/Brooks,e,3.7876,155.2439,227.5339,3.453843,0.1535502,0.56350741,141.0636,01/13.0/2017,2000,g  7.5,10.0
# From MPC 83523
17P/Holmes,e,19.0627,326.7714,24.7481,3.626935,0.1426903,0.42980497,146.0698,01/13.0/2017,2000,g 10.0,6.0
# From MPC 92984
19P/Borrelly,e,30.3998,75.2759,353.4777,3.599662,0.1443150,0.62580955,85.8727,01/13.0/2017,2000,g  4.5,10.0
# From MPC 94674
21P/Giacobini-Zinner,e,32.0150,195.4224,172.5879,3.509640,0.1499030,0.70920986,269.2004,01/13.0/2017,2000,g  9.0,6.0
# From MPC 94283
22P/Kopff,e,4.7371,120.8646,162.8917,3.445712,0.1540940,0.54790483,68.7082,01/13.0/2017,2000,g  3.0,10.4
# From MPC 14747
23P/Brorsen-Metcalf,e,19.3925,311.3917,129.8162,16.96450,0.0141056,0.97132116,0.0000,09/16.7473/1989,2000,g  7.8,3.2
# From MPC 56804
24P/Schaumasse,e,11.7337,79.6353,58.0449,4.085063,0.1193729,0.70469652,323.2551,01/13.0/2017,2000,g  6.5,14.0
# From MPC 94674
26P/Grigg-Skjellerup,e,22.4484,211.5334,2.1616,3.015775,0.1881940,0.64083767,242.0389,01/13.0/2017,2000,g 12.0,16.0
# From MPC 78188
27P/Crommelin,e,29.1825,250.5806,196.0370,9.212100,0.0352506,0.91851487,70.2233,01/13.0/2017,2000,g 12.0,8.0
# From MPC 75715
28P/Neujmin,e,14.3154,346.3493,347.5333,6.944099,0.0538617,0.77270938,278.0800,01/13.0/2017,2000,g  8.5,6.0
# From MPC102100
29P/Schwassmann-Wachmann,e,9.3756,312.4109,48.6806,6.016640,0.0667841,0.04175013,306.7978,01/13.0/2017,2000,g  4.0,4.0
# From MPEC 2017-A77
30P/Reinmuth,e,8.1285,119.7065,13.2732,3.769792,0.1346567,0.50215409,330.6265,01/13.0/2017,2000,g  9.5,6.0
# From MPC102100
31P/Schwassmann-Wachmann,e,4.5460,114.1332,18.3027,4.247322,0.1125982,0.19376732,258.2521,01/13.0/2017,2000,g  5.0,8.0
# From MPC 92276
32P/Comas Sola,e,9.9706,57.8214,53.2759,4.503633,0.1031240,0.55574274,84.4374,01/13.0/2017,2000,g  6.5,8.0
# From MPC 84320
33P/Daniel,e,22.3942,66.4902,19.0790,4.023176,0.1221379,0.46304250,17.5285,01/13.0/2017,2000,g 10.0,12.0
# From QJ 15, 452
35P/Herschel-Rigollet,e,63.4025,355.5464,29.4636,28.56908,0.0064545,0.97320664,0.0000,03/03.2800/2092,2000,g  8.5,4.0
# From MPC 75716
36P/Whipple,e,9.9558,181.9711,200.0480,4.143265,0.1168665,0.26583100,215.6928,01/13.0/2017,2000,g  8.5,6.0
# From MPC 94674
37P/Forbes,e,8.9643,314.6468,330.0186,3.455098,0.1534665,0.53453341,286.9285,01/13.0/2017,2000,g 10.5,4.8
# From QJ 27, 605
38P/Stephan-Oterma,e,18.3564,78.0208,359.6116,11.27389,0.0260371,0.85922164,342.6342,01/13.0/2017,2000,g  3.5,12.0
# From MPC 75716
39P/Oterma,e,1.5448,299.5726,94.0590,7.420293,0.0487610,0.22327078,247.6734,01/13.0/2017,2000,g  5.0,6.0
# From MPC 10028
40P/Vaisala,e,11.4898,133.8410,47.3400,4.943764,0.0896639,0.63163093,70.7536,01/13.0/2017,2000,g  5.5,12.0
# From MPEC 2017-A77
41P/Tuttle-Giacobini-Kresak,e,9.2294,141.0752,62.1471,3.083603,0.1820188,0.66108983,343.6635,01/13.0/2017,2000,g 10.0,16.0
# From MPC 94283
42P/Neujmin,e,3.9845,150.2766,147.0886,4.875127,0.0915641,0.58429620,59.1294,01/13.0/2017,2000,g 13.0,6.0
# From MPEC 2017-A77
43P/Wolf-Harrington,e,15.9652,249.8291,191.6089,3.349792,0.1607598,0.59460050,23.5181,01/13.0/2017,2000,g  8.0,6.0
# From MPC 89313
44P/Reinmuth,e,5.8961,286.4587,58.2366,3.691808,0.1389458,0.42619577,91.8532,01/13.0/2017,2000,g  8.3,6.0
# From MPEC 2017-A77
45P/Honda-Mrkos-Pajdusakova,e,4.2495,89.0056,326.2618,3.024588,0.1873720,0.82392428,2.3860,01/13.0/2017,2000,g 13.5,8.0
# From MPC 88330
46P/Wirtanen,e,11.7479,82.1723,356.3512,3.089245,0.1815204,0.65854447,233.1160,01/13.0/2017,2000,g  9.0,6.0
# From NK 2718
47P/Ashbrook-Jackson,e,13.0308,356.9739,357.6859,4.125744,0.1176117,0.31693201,342.5648,01/13.0/2017,2000,g  1.0,11.2
# From MPC 94675
48P/Johnson,e,12.1985,110.3984,216.0476,3.507137,0.1500635,0.42789229,273.6740,01/13.0/2017,2000,g 10.0,6.0
# From MPC 94675
49P/Arend-Rigaux,e,19.0477,118.8346,332.9118,3.568187,0.1462287,0.59958419,279.7974,01/13.0/2017,2000,g 11.3,4.4
# From MPC 95735
50P/Arend,e,19.1385,355.1770,49.2504,4.084889,0.1193806,0.53014038,40.5623,01/13.0/2017,2000,g  9.5,6.0
# From NK 3014
51P-A/Harrington,e,5.4244,83.6899,269.2695,3.712934,0.1377616,0.54222737,71.5541,01/13.0/2017,2000,g 10.0,8.0
# From NK 3013
51P-D/Harrington,e,5.4252,83.6748,269.3081,3.711917,0.1378182,0.54216374,71.7329,01/13.0/2017,2000,g 16.0,8.0
# From MPC 88330
52P/Harrington-Abell,e,10.2321,336.8323,139.6695,3.859553,0.1299866,0.53991269,135.5477,01/13.0/2017,2000,g 13.5,6.0
# From MPC 10028
53P/Van Biesbroeck,e,6.6082,148.9228,134.2030,5.415279,0.0782119,0.55180223,20.1816,01/13.0/2017,2000,g  7.7,4.8
# From NK 2713
54P/de Vico-Swift-NEAT,e,6.0573,358.8533,1.8621,3.796560,0.1332351,0.42454406,347.6817,01/13.0/2017,2000,g 10.0,6.0
# From MPC 31070
55P/Tempel-Tuttle,e,162.3552,235.4014,172.6175,10.33743,0.0296541,0.90668702,204.3086,01/13.0/2017,2000,g 10.0,10.0
# From MPC101100
56P/Slaughter-Burnham,e,8.1477,345.9834,44.2145,5.083685,0.0859876,0.50653718,15.3563,01/13.0/2017,2000,g  8.5,6.0
# From MPC 98565
57P/du Toit-Neujmin-Delporte,e,2.8486,188.8071,115.1668,3.451337,0.1537174,0.49938637,92.4991,01/13.0/2017,2000,g 12.5,6.0
# From MPC 65938
58P/Jackson-Neujmin,e,13.4131,160.3211,200.0235,4.051500,0.1208593,0.66747169,211.4064,01/13.0/2017,2000,g 15.5,6.0
# From MPC 94675
59P/Kearns-Kwee,e,9.3421,312.8448,127.7454,4.493772,0.1034636,0.47539158,296.6958,01/13.0/2017,2000,g  7.0,6.0
# From MPC 94675
60P/Tsuchinshan,e,3.6066,267.6186,216.5442,3.510343,0.1498579,0.53812209,255.5364,01/13.0/2017,2000,g 11.5,6.0
# From MPC 95213
61P/Shajn-Schaldach,e,6.0057,163.0188,221.9310,3.680566,0.1395829,0.42546350,65.4468,01/13.0/2017,2000,g  6.0,10.0
# From MPC 62881
62P/Tsuchinshan,e,9.7078,90.2517,30.3412,3.438782,0.1545600,0.59760904,312.5244,01/13.0/2017,2000,g  8.0,10.0
# From MPC 84320
63P/Wild,e,19.7838,357.9727,169.1602,5.597142,0.0744311,0.65089877,102.1887,01/13.0/2017,2000,g 10.5,6.0
# From MPC 94675
64P/Swift-Gehrels,e,8.9461,300.0110,97.1376,4.454933,0.1048196,0.68715639,290.8198,01/13.0/2017,2000,g  8.5,12.0
# From MPC 10028
65P/Gunn,e,9.1828,62.0221,213.4440,3.883550,0.1287836,0.25058963,324.4109,01/13.0/2017,2000,g  5.0,6.0
# From MPC 94675
66P/du Toit,e,18.6779,21.8954,257.2875,6.044543,0.0663222,0.78681088,327.4224,01/13.0/2017,2000,g 12.0,3.6
# From MPC 89011
67P/Churyumov-Gerasimenko,e,7.0608,50.0153,12.8235,3.463018,0.1529403,0.64245573,79.2719,01/13.0/2017,2000,g 11.0,4.0
# From MPC 75716
68P/Klemola,e,11.1906,175.2919,153.5302,4.915434,0.0904401,0.63977233,266.8236,01/13.0/2017,2000,g 10.0,4.0
# From MPC102100
69P/Taylor,e,22.0372,104.8503,343.6484,3.889343,0.1284960,0.41344161,257.9245,01/13.0/2017,2000,g  9.5,12.0
